COMMENT,ORIGINATOR,NORAD_CAT_ID,OBJECT_NAME,OBJECT_TYPE,CLASSIFICATION_TYPE,INTLDES,EPOCH,EPOCH_MICROSECONDS,MEAN_MOTION,ECCENTRICITY,INCLINATION,RA_OF_ASC_NODE,ARG_OF_PERICENTER,MEAN_ANOMALY,EPHEMERIS_TYPE,ELEMENT_SET_NO,REV_AT_EPOCH,BSTAR,MEAN_MOTION_DOT,MEAN_MOTION_DDOT,FILE,TLE_LINE0,TLE_LINE1,TLE_LINE2,OBJECT_ID,OBJECT_NUMBER,SEMIMAJOR_AXIS,PERIOD,APOGEE,PERIGEE,DECAYED
"GENERATED VIA SPACETRACK.ORG API","18 SPCS","47950","OBJECT U","TBA","U","21022U","2021-07-01 22:22:37","869600","15.05704418","0.0020448","97.5551","84.7695","263.5786","96.313","0","999","1523","0.00011104","0.0000155","0","3067872","0 OBJECT U","1 47950U 21022U   21182.93238275  .00001550  00000-0  11104-3 0  9996","2 47950  97.5551  84.7695 0020448 263.5786  96.3130 15.05704418 15231","2021-022U","47950","6927.481","95.636","563.512","535.181","0"
"GENERATED VIA SPACETRACK.ORG API","18 SPCS","47950","OBJECT U","TBA","U","21022U","2021-07-02 04:45:24","981984","15.05705363","0.0020455","97.5551","85.0298","262.621","97.2697","0","999","1527","0.00011159","0.00001558","0","3068250","0 OBJECT U","1 47950U 21022U   21183.19820581  .00001558  00000-0  11159-3 0  9990","2 47950  97.5551  85.0298 0020455 262.6210  97.2697 15.05705363 15276","2021-022U","47950","6927.478","95.636","563.513","535.173","0"
"GENERATED VIA SPACETRACK.ORG API","18 SPCS","47950","OBJECT U","TBA","U","21022U","2021-07-02 12:43:53","925600","15.05706337","0.0020398","97.5551","85.3555","261.2325","98.66","0","999","1532","0.00011126","0.00001553","0","3068541","0 OBJECT U","1 47950U 21022U   21183.53048525  .00001553  00000-0  11126-3 0  9997","2 47950  97.5551  85.3555 0020398 261.2325  98.6600 15.05706337 15320","2021-022U","47950","6927.475","95.636","563.471","535.210","0"
"GENERATED VIA SPACETRACK.ORG API","18 SPCS","47950","OBJECT U","TBA","U","21022U","2021-07-02 12:43:53","925600","15.05706337","0.0020398","97.5551","85.3555","261.2325","98.66","0","999","1532","0.00011126","0.00001553","0","3068555","0 OBJECT U","1 47950U 21022U   21183.53048525  .00001553  00000-0  11126-3 0  9997","2 47950  97.5551  85.3555 0020398 261.2325  98.6600 15.05706337 15320","2021-022U","47950","6927.475","95.636","563.471","535.210","0"
"GENERATED VIA SPACETRACK.ORG API","18 SPCS","47950","OBJECT U","TBA","U","21022U","2021-07-02 20:42:22","806144","15.05707324","0.0020417","97.5547","85.6809","260.1016","99.7901","0","999","1537","0.00011016","0.00001537","0","3068809","0 OBJECT U","1 47950U 21022U   21183.86276396  .00001537  00000-0  11016-3 0  9992","2 47950  97.5547  85.6809 0020417 260.1016  99.7901 15.05707324 15375","2021-022U","47950","6927.472","95.636","563.481","535.194","0"
"GENERATED VIA SPACETRACK.ORG API","18 SPCS","47950","OBJECT U","TBA","U","21022U","2021-07-02 20:42:22","806144","15.05707324","0.0020417","97.5547","85.6809","260.1016","99.7901","0","999","1537","0.00011016","0.00001537","0","3068825","0 OBJECT U","1 47950U 21022U   21183.86276396  .00001537  00000-0  11016-3 0  9992","2 47950  97.5547  85.6809 0020417 260.1016  99.7901 15.05707324 15375","2021-022U","47950","6927.472","95.636","563.481","535.194","0"
"GENERATED VIA SPACETRACK.ORG API","18 SPCS","47950","OBJECT U","TBA","U","21022U","2021-07-03 04:40:51","704832","15.05708451","0.0020387","97.5549","86.0064","258.9533","100.9408","0","999","1542","0.0001105","0.00001542","0","3069017","0 OBJECT U","1 47950U 21022U   21184.19504288  .00001542  00000-0  11050-3 0  9997","2 47950  97.5549  86.0064 0020387 258.9533 100.9408 15.05708451 15425","2021-022U","47950","6927.469","95.636","563.457","535.211","0"
"GENERATED VIA SPACETRACK.ORG API","18 SPCS","47950","OBJECT U","TBA","U","21022U","2021-07-03 12:39:20","595744","15.05709191","0.0020336","97.5553","86.3323","257.5306","102.3645","0","999","1547","0.0001084","0.00001512","0","3069265","0 OBJECT U","1 47950U 21022U   21184.52732171  .00001512  00000-0  10840-3 0  9991","2 47950  97.5553  86.3323 0020336 257.5306 102.3645 15.05709191 15474","2021-022U","47950","6927.467","95.636","563.419","535.244","0"
"GENERATED VIA SPACETRACK.ORG API","18 SPCS","47950","OBJECT U","TBA","U","21022U","2021-07-03 12:39:20","595744","15.05709191","0.0020336","97.5553","86.3323","257.5306","102.3645","0","999","1547","0.0001084","0.00001512","0","3069314","0 OBJECT U","1 47950U 21022U   21184.52732171  .00001512  00000-0  10840-3 0  9991","2 47950  97.5553  86.3323 0020336 257.5306 102.3645 15.05709191 15474","2021-022U","47950","6927.467","95.636","563.419","535.244","0"
"GENERATED VIA SPACETRACK.ORG API","18 SPCS","47950","OBJECT U","TBA","U","21022U","2021-07-03 20:37:49","444320","15.05710079","0.002033","97.5552","86.6576","256.4501","103.4448","0","999","1552","0.0001069","0.0000149","0","3069491","0 OBJECT U","1 47950U 21022U   21184.85960005  .00001490  00000-0  10690-3 0  9994","2 47950  97.5552  86.6576 0020330 256.4501 103.4448 15.05710079 15521","2021-022U","47950","6927.464","95.636","563.412","535.245","0"
"GENERATED VIA SPACETRACK.ORG API","18 SPCS","47950","OBJECT U","TBA","U","21022U","2021-07-03 20:37:49","444320","15.05710079","0.002033","97.5552","86.6576","256.4501","103.4448","0","999","1552","0.0001069","0.0000149","0","3069501","0 OBJECT U","1 47950U 21022U   21184.85960005  .00001490  00000-0  10690-3 0  9994","2 47950  97.5552  86.6576 0020330 256.4501 103.4448 15.05710079 15521","2021-022U","47950","6927.464","95.636","563.412","535.245","0"
"GENERATED VIA SPACETRACK.ORG API","18 SPCS","47950","OBJECT U","TBA","U","21022U","2021-07-04 04:36:18","319680","15.05710978","0.0020289","97.5554","86.9831","255.3432","104.5545","0","999","1557","0.00010575","0.00001473","0","3069747","0 OBJECT U","1 47950U 21022U   21185.19187870  .00001473  00000-0  10575-3 0  9996","2 47950  97.5554  86.9831 0020289 255.3432 104.5545 15.05710978 15577","2021-022U","47950","6927.461","95.636","563.381","535.271","0"
"GENERATED VIA SPACETRACK.ORG API","18 SPCS","47950","OBJECT U","TBA","U","21022U","2021-07-04 12:34:47","187264","15.0571158","0.0020262","97.5558","87.309","253.9556","105.9437","0","999","1562","0.00010304","0.00001434","0","3069999","0 OBJECT U","1 47950U 21022U   21185.52415726  .00001434  00000-0  10304-3 0  9994","2 47950  97.5558  87.3090 0020262 253.9556 105.9437 15.05711580 15626","2021-022U","47950","6927.459","95.636","563.361","535.288","0"
"GENERATED VIA SPACETRACK.ORG API","18 SPCS","47950","OBJECT U","TBA","U","21022U","2021-07-04 12:34:47","187264","15.0571158","0.0020262","97.5558","87.309","253.9556","105.9437","0","999","1562","0.00010304","0.00001434","0","3070026","0 OBJECT U","1 47950U 21022U   21185.52415726  .00001434  00000-0  10304-3 0  9994","2 47950  97.5558  87.3090 0020262 253.9556 105.9437 15.05711580 15626","2021-022U","47950","6927.459","95.636","563.361","535.288","0"
"GENERATED VIA SPACETRACK.ORG API","18 SPCS","47950","OBJECT U","TBA","U","21022U","2021-07-04 20:33:16","3008","15.05712407","0.0020245","97.5558","87.6347","252.8344","107.0654","0","999","1567","0.00010165","0.00001414","0","3070233","0 OBJECT U","1 47950U 21022U   21185.85643522  .00001414  00000-0  10165-3 0  9990","2 47950  97.5558  87.6347 0020245 252.8344 107.0654 15.05712407 15676","2021-022U","47950","6927.457","95.636","563.346","535.297","0"
"GENERATED VIA SPACETRACK.ORG API","18 SPCS","47950","OBJECT U","TBA","U","21022U","2021-07-04 20:33:16","3008","15.05712407","0.0020245","97.5558","87.6347","252.8344","107.0654","0","999","1567","0.00010165","0.00001414","0","3070249","0 OBJECT U","1 47950U 21022U   21185.85643522  .00001414  00000-0  10165-3 0  9990","2 47950  97.5558  87.6347 0020245 252.8344 107.0654 15.05712407 15676","2021-022U","47950","6927.457","95.636","563.346","535.297","0"
"GENERATED VIA SPACETRACK.ORG API","18 SPCS","47950","OBJECT U","TBA","U","21022U","2021-07-05 04:31:44","842944","15.05713067","0.0020211","97.556","87.9603","251.6478","108.2543","0","999","1572","0.000099162","0.00001378","0","3070514","0 OBJECT U","1 47950U 21022U   21186.18871346  .00001378  00000-0  99162-4 0  9998","2 47950  97.5560  87.9603 0020211 251.6478 108.2543 15.05713067 15724","2021-022U","47950","6927.455","95.636","563.321","535.319","0"
"GENERATED VIA SPACETRACK.ORG API","18 SPCS","47950","OBJECT U","TBA","U","21022U","2021-07-05 12:30:13","681152","15.05713497","0.0020199","97.5562","88.2861","250.2812","109.6226","0","999","1577","0.000095376","0.00001323","0","3070722","0 OBJECT U","1 47950U 21022U   21186.52099168  .00001323  00000-0  95376-4 0  9993","2 47950  97.5562  88.2861 0020199 250.2812 109.6226 15.05713497 15773","2021-022U","47950","6927.453","95.636","563.311","535.326","0"
"GENERATED VIA SPACETRACK.ORG API","18 SPCS","47950","OBJECT U","TBA","U","21022U","2021-07-05 12:30:13","680288","15.05713497","0.0020199","97.5562","88.2861","250.2812","109.6226","0","999","1577","0.000095376","0.00001323","0","3070737","0 OBJECT U","1 47950U 21022U   21186.52099167  .00001323  00000-0  95376-4 0  9992","2 47950  97.5562  88.2861 0020199 250.2812 109.6226 15.05713497 15773","2021-022U","47950","6927.453","95.636","563.311","535.326","0"
"GENERATED VIA SPACETRACK.ORG API","18 SPCS","47950","OBJECT U","TBA","U","21022U","2021-07-05 20:28:42","477024","15.05714038","0.0020166","97.5561","88.6117","249.0743","110.83","0","999","1582","0.000092156","0.00001276","0","3070949","0 OBJECT U","1 47950U 21022U   21186.85326941  .00001276  00000-0  92156-4 0  9991","2 47950  97.5561  88.6117 0020166 249.0743 110.8300 15.05714038 15828","2021-022U","47950","6927.452","95.636","563.287","535.347","0"
